{"fetched_at":"2026-03-30T06:02:59Z","count":15439,"tles":[{"name":"STARLINK-31874","line1":"1 60603U 24150W   26087.77804704  .00006893  00000+0  24456-3 0  9996","line2":"2 60603  53.1593 218.3771 0000319  74.8644 285.2392 15.30205929 90969","category":"Starlink"}]}