{
  "norad_id": 60603,
  "name": "STARLINK-31874",
  "history": [
    {
      "epoch": "2026-03-28T18:40:23.264256",
      "apogee_km": 475.41653618423516,
      "perigee_km": 474.9781969181504,
      "latitude_deg": -29.05672621024635,
      "longitude_deg": -45.00748415989801,
      "semi_major_axis_km": 6853.334366551193,
      "eccentricity": 3.198e-05,
      "inclination_deg": 53.1593,
      "raan_deg": 218.3771,
      "arg_perigee_deg": 74.8644,
      "mean_anomaly_deg": 285.2392,
      "mean_motion_rev_day": 15.30205929
    }
  ]
}